CCSDS_OMM_VERS = 2.0
CREATION_DATE  = 
ORIGINATOR     = 

OBJECT_NAME    = STARLINK-36930
OBJECT_ID      = 2026-040D
CENTER_NAME    = EARTH
REF_FRAME      = TEME
TIME_SYSTEM    = UTC
MEAN_ELEMENT_THEORY = SGP/SGP4

EPOCH          = 2026-03-19T16:00:01.999584
MEAN_MOTION    = 15.79986778
ECCENTRICITY   = .0001484
INCLINATION    = 97.2777
RA_OF_ASC_NODE = 27.5959
ARG_OF_PERICENTER = 93.9192
MEAN_ANOMALY   = 328.7949

EPHEMERIS_TYPE = 0
CLASSIFICATION_TYPE = U
NORAD_CAT_ID   = 68018
ELEMENT_SET_NO = 999
REV_AT_EPOCH   = 403
BSTAR          = -.11976E-1
MEAN_MOTION_DOT = -.1926008E-1
MEAN_MOTION_DDOT = 0

CCSDS_OMM_VERS = 2.0
CREATION_DATE  = 
ORIGINATOR     = 

OBJECT_NAME    = STARLINK-36921
OBJECT_ID      = 2026-040E
CENTER_NAME    = EARTH
REF_FRAME      = TEME
TIME_SYSTEM    = UTC
MEAN_ELEMENT_THEORY = SGP/SGP4

EPOCH          = 2026-03-19T06:00:02.000160
MEAN_MOTION    = 15.80810169
ECCENTRICITY   = .0000519
INCLINATION    = 97.2767
RA_OF_ASC_NODE = 27.1623
ARG_OF_PERICENTER = 107.4480
MEAN_ANOMALY   = 122.9878

EPHEMERIS_TYPE = 0
CLASSIFICATION_TYPE = U
NORAD_CAT_ID   = 68019
ELEMENT_SET_NO = 999
REV_AT_EPOCH   = 396
BSTAR          = .3845777E-3
MEAN_MOTION_DOT = .74129E-3
MEAN_MOTION_DDOT = 0

CCSDS_OMM_VERS = 2.0
CREATION_DATE  = 
ORIGINATOR     = 

OBJECT_NAME    = STARLINK-36928
OBJECT_ID      = 2026-040F
CENTER_NAME    = EARTH
REF_FRAME      = TEME
TIME_SYSTEM    = UTC
MEAN_ELEMENT_THEORY = SGP/SGP4

EPOCH          = 2026-03-19T16:00:01.999584
MEAN_MOTION    = 15.80661267
ECCENTRICITY   = .0001347
INCLINATION    = 97.2795
RA_OF_ASC_NODE = 27.6009
ARG_OF_PERICENTER = 77.7744
MEAN_ANOMALY   = 358.0416

EPHEMERIS_TYPE = 0
CLASSIFICATION_TYPE = U
NORAD_CAT_ID   = 68020
ELEMENT_SET_NO = 999
REV_AT_EPOCH   = 403
BSTAR          = -.11719E-1
MEAN_MOTION_DOT = -.1941661E-1
MEAN_MOTION_DDOT = 0

CCSDS_OMM_VERS = 2.0
CREATION_DATE  = 
ORIGINATOR     = 

OBJECT_NAME    = STARLINK-36858
OBJECT_ID      = 2026-040G
CENTER_NAME    = EARTH
REF_FRAME      = TEME
TIME_SYSTEM    = UTC
MEAN_ELEMENT_THEORY = SGP/SGP4

EPOCH          = 2026-03-19T20:19:43.481856
MEAN_MOTION    = 15.86019763
ECCENTRICITY   = .0000243
INCLINATION    = 97.2785
RA_OF_ASC_NODE = 27.9400
ARG_OF_PERICENTER = 127.3465
MEAN_ANOMALY   = 232.7828

EPHEMERIS_TYPE = 0
CLASSIFICATION_TYPE = U
NORAD_CAT_ID   = 68021
ELEMENT_SET_NO = 999
REV_AT_EPOCH   = 296
BSTAR          = -.42103E-2
MEAN_MOTION_DOT = -.928066E-2
MEAN_MOTION_DDOT = 0

CCSDS_OMM_VERS = 2.0
CREATION_DATE  = 
ORIGINATOR     = 

OBJECT_NAME    = STARLINK-36916
OBJECT_ID      = 2026-040H
CENTER_NAME    = EARTH
REF_FRAME      = TEME
TIME_SYSTEM    = UTC
MEAN_ELEMENT_THEORY = SGP/SGP4

EPOCH          = 2026-03-19T06:00:02.000160
MEAN_MOTION    = 15.80935505
ECCENTRICITY   = .00007492
INCLINATION    = 97.2751
RA_OF_ASC_NODE = 27.1647
ARG_OF_PERICENTER = 136.2779
MEAN_ANOMALY   = 102.7168

EPHEMERIS_TYPE = 0
CLASSIFICATION_TYPE = U
NORAD_CAT_ID   = 68022
ELEMENT_SET_NO = 999
REV_AT_EPOCH   = 396
BSTAR          = -.19001354E-2
MEAN_MOTION_DOT = -.351725E-2
MEAN_MOTION_DDOT = 0

CCSDS_OMM_VERS = 2.0
CREATION_DATE  = 
ORIGINATOR     = 

OBJECT_NAME    = STARLINK-36871
OBJECT_ID      = 2026-040J
CENTER_NAME    = EARTH
REF_FRAME      = TEME
TIME_SYSTEM    = UTC
MEAN_ELEMENT_THEORY = SGP/SGP4

EPOCH          = 2026-03-19T16:00:01.999584
MEAN_MOTION    = 15.80001786
ECCENTRICITY   = .0001371
INCLINATION    = 97.2773
RA_OF_ASC_NODE = 27.6078
ARG_OF_PERICENTER = 86.8292
MEAN_ANOMALY   = 5.8092

EPHEMERIS_TYPE = 0
CLASSIFICATION_TYPE = U
NORAD_CAT_ID   = 68023
ELEMENT_SET_NO = 999
REV_AT_EPOCH   = 403
BSTAR          = -.11922E-1
MEAN_MOTION_DOT = -.1919566E-1
MEAN_MOTION_DDOT = 0

CCSDS_OMM_VERS = 2.0
CREATION_DATE  = 
ORIGINATOR     = 

OBJECT_NAME    = STARLINK-36891
OBJECT_ID      = 2026-040K
CENTER_NAME    = EARTH
REF_FRAME      = TEME
TIME_SYSTEM    = UTC
MEAN_ELEMENT_THEORY = SGP/SGP4

EPOCH          = 2026-03-19T16:00:01.999584
MEAN_MOTION    = 15.79945156
ECCENTRICITY   = .0001535
INCLINATION    = 97.2773
RA_OF_ASC_NODE = 27.6100
ARG_OF_PERICENTER = 82.6683
MEAN_ANOMALY   = 14.2038

EPHEMERIS_TYPE = 0
CLASSIFICATION_TYPE = U
NORAD_CAT_ID   = 68024
ELEMENT_SET_NO = 999
REV_AT_EPOCH   = 403
BSTAR          = -.11962E-1
MEAN_MOTION_DOT = -.1920949E-1
MEAN_MOTION_DDOT = 0

CCSDS_OMM_VERS = 2.0
CREATION_DATE  = 
ORIGINATOR     = 

OBJECT_NAME    = STARLINK-36378
OBJECT_ID      = 2026-040L
CENTER_NAME    = EARTH
REF_FRAME      = TEME
TIME_SYSTEM    = UTC
MEAN_ELEMENT_THEORY = SGP/SGP4

EPOCH          = 2026-03-19T16:00:01.999584
MEAN_MOTION    = 15.79810818
ECCENTRICITY   = .0001541
INCLINATION    = 97.2794
RA_OF_ASC_NODE = 27.6161
ARG_OF_PERICENTER = 82.6965
MEAN_ANOMALY   = 22.6461

EPHEMERIS_TYPE = 0
CLASSIFICATION_TYPE = U
NORAD_CAT_ID   = 68025
ELEMENT_SET_NO = 999
REV_AT_EPOCH   = 398
BSTAR          = -.11884E-1
MEAN_MOTION_DOT = -.1899774E-1
MEAN_MOTION_DDOT = 0

CCSDS_OMM_VERS = 2.0
CREATION_DATE  = 
ORIGINATOR     = 

OBJECT_NAME    = STARLINK-36884
OBJECT_ID      = 2026-040M
CENTER_NAME    = EARTH
REF_FRAME      = TEME
TIME_SYSTEM    = UTC
MEAN_ELEMENT_THEORY = SGP/SGP4

EPOCH          = 2026-03-19T16:00:01.999584
MEAN_MOTION    = 15.80315252
ECCENTRICITY   = .0001443
INCLINATION    = 97.2780
RA_OF_ASC_NODE = 27.6126
ARG_OF_PERICENTER = 63.2149
MEAN_ANOMALY   = 38.1453

EPHEMERIS_TYPE = 0
CLASSIFICATION_TYPE = U
NORAD_CAT_ID   = 68026
ELEMENT_SET_NO = 999
REV_AT_EPOCH   = 403
BSTAR          = -.11905E-1
MEAN_MOTION_DOT = -.1941289E-1
MEAN_MOTION_DDOT = 0

CCSDS_OMM_VERS = 2.0
CREATION_DATE  = 
ORIGINATOR     = 

OBJECT_NAME    = STARLINK-36940
OBJECT_ID      = 2026-040N
CENTER_NAME    = EARTH
REF_FRAME      = TEME
TIME_SYSTEM    = UTC
MEAN_ELEMENT_THEORY = SGP/SGP4

EPOCH          = 2026-03-19T16:00:01.999584
MEAN_MOTION    = 15.79128766
ECCENTRICITY   = .0001934
INCLINATION    = 97.2852
RA_OF_ASC_NODE = 27.6436
ARG_OF_PERICENTER = 93.8562
MEAN_ANOMALY   = 61.9851

EPHEMERIS_TYPE = 0
CLASSIFICATION_TYPE = U
NORAD_CAT_ID   = 68027
ELEMENT_SET_NO = 999
REV_AT_EPOCH   = 412
BSTAR          = -.12248E-1
MEAN_MOTION_DOT = -.1898581E-1
MEAN_MOTION_DDOT = 0

CCSDS_OMM_VERS = 2.0
CREATION_DATE  = 
ORIGINATOR     = 

OBJECT_NAME    = STARLINK-36253
OBJECT_ID      = 2026-040P
CENTER_NAME    = EARTH
REF_FRAME      = TEME
TIME_SYSTEM    = UTC
MEAN_ELEMENT_THEORY = SGP/SGP4

EPOCH          = 2026-03-19T16:00:01.999584
MEAN_MOTION    = 15.70532022
ECCENTRICITY   = .0001823
INCLINATION    = 97.2848
RA_OF_ASC_NODE = 27.3833
ARG_OF_PERICENTER = 96.9801
MEAN_ANOMALY   = 178.6407

EPHEMERIS_TYPE = 0
CLASSIFICATION_TYPE = U
NORAD_CAT_ID   = 68028
ELEMENT_SET_NO = 999
REV_AT_EPOCH   = 413
BSTAR          = -.17623E-1
MEAN_MOTION_DOT = -.1878732E-1
MEAN_MOTION_DDOT = 0

CCSDS_OMM_VERS = 2.0
CREATION_DATE  = 
ORIGINATOR     = 

OBJECT_NAME    = STARLINK-36944
OBJECT_ID      = 2026-040Q
CENTER_NAME    = EARTH
REF_FRAME      = TEME
TIME_SYSTEM    = UTC
MEAN_ELEMENT_THEORY = SGP/SGP4

EPOCH          = 2026-03-19T16:00:01.999584
MEAN_MOTION    = 15.79665290
ECCENTRICITY   = .0001669
INCLINATION    = 97.2779
RA_OF_ASC_NODE = 27.6152
ARG_OF_PERICENTER = 74.3134
MEAN_ANOMALY   = 35.3231

EPHEMERIS_TYPE = 0
CLASSIFICATION_TYPE = U
NORAD_CAT_ID   = 68029
ELEMENT_SET_NO = 999
REV_AT_EPOCH   = 403
BSTAR          = -.11344E-1
MEAN_MOTION_DOT = -.1813678E-1
MEAN_MOTION_DDOT = 0

